OBJECT_NAME,OBJECT_ID,EPOCH,MEAN_MOTION,ECCENTRICITY,INCLINATION,RA_OF_ASC_NODE,ARG_OF_PERICENTER,MEAN_ANOMALY,EPHEMERIS_TYPE,CLASSIFICATION_TYPE,NORAD_CAT_ID,ELEMENT_SET_NO,REV_AT_EPOCH,BSTAR,MEAN_MOTION_DOT,MEAN_MOTION_DDOT
SAUDISAT 1C (SO-50),2002-058C,2026-06-25T04:18:46.446336,14.83062534,.0075079,64.5519,104.2569,260.9817,98.2786,0,U,27607,999,26564,.12668E-3,.928E-5,0
SAUDISAT 2,2004-025F,2026-06-24T23:55:32.312928,14.56687890,.0023442,98.5508,176.1807,273.0068,86.8447,0,U,28371,999,16688,.63178E-4,.233E-5,0
SAUDISAT 3,2007-012B,2026-06-23T13:59:21.524064,14.71428609,.00140489,98.1456,124.9877,202.3766,157.6829,0,U,31118,999,2868,.38031442E-4,.185E-5,0
PISAT,2016-059B,2026-06-24T23:27:17.519040,14.68995329,.0029037,97.8179,176.0953,177.6353,182.4996,0,U,41784,999,52088,.14821E-3,.827E-5,0
FLYING LAPTOP,2017-042G,2026-06-25T04:25:25.733568,15.01190382,.0019945,97.4723,331.4110,96.2531,264.0966,0,U,42831,999,48765,.19722E-3,.2482E-4,0
SALSAT,2020-068K,2026-06-24T23:51:59.462208,15.29898993,.0007812,97.8853,179.5347,274.8629,85.1718,0,U,46495,999,31655,.27767E-3,.7962E-4,0
